{
  "norad_id": 58459,
  "name": "STARLINK-30977",
  "history": [
    {
      "epoch": "2026-03-28T20:49:38.511840Z",
      "apogee_km": 483.8932897338336,
      "perigee_km": 482.19377531592636,
      "latitude_deg": 2.230729119031409e-05,
      "longitude_deg": 154.92387241340327,
      "height_km": 482.81654030129044,
      "semi_major_axis_km": 6861.18053252488,
      "eccentricity": 0.00012385,
      "inclination_deg": 43.0,
      "raan_deg": 293.6164,
      "arg_perigee_deg": 270.2398,
      "mean_anomaly_deg": 89.8312,
      "mean_motion_rev_day": 15.27581858
    },
    {
      "epoch": "2026-03-28T23:57:57.270528Z",
      "apogee_km": 483.85782715359073,
      "perigee_km": 482.19879738108557,
      "latitude_deg": 5.7230660584963486e-05,
      "longitude_deg": 106.97865298157802,
      "height_km": 482.837503078802,
      "semi_major_axis_km": 6861.165312267338,
      "eccentricity": 0.0001209,
      "inclination_deg": 42.9997,
      "raan_deg": 292.8782,
      "arg_perigee_deg": 267.7411,
      "mean_anomaly_deg": 92.3303,
      "mean_motion_rev_day": 15.27586941
    },
    {
      "epoch": "2026-03-29T23:30:17.031456Z",
      "apogee_km": 483.9952151339112,
      "perigee_km": 481.9726938989388,
      "latitude_deg": -3.622636567357275e-05,
      "longitude_deg": 107.38881152634134,
      "height_km": 482.49767528572676,
      "semi_major_axis_km": 6861.120954516425,
      "eccentricity": 0.00014739,
      "inclination_deg": 43.0028,
      "raan_deg": 287.3375,
      "arg_perigee_deg": 285.0949,
      "mean_anomaly_deg": 74.9739,
      "mean_motion_rev_day": 15.27601755
    },
    {
      "epoch": "2026-03-30T19:54:20.756160Z",
      "apogee_km": 484.0460159271215,
      "perigee_km": 482.15697974389604,
      "latitude_deg": -5.888583247273284e-05,
      "longitude_deg": 155.73542800568785,
      "height_km": 482.8648269854619,
      "semi_major_axis_km": 6861.2384978355085,
      "eccentricity": 0.00013766,
      "inclination_deg": 43.0002,
      "raan_deg": 282.5375,
      "arg_perigee_deg": 270.812,
      "mean_anomaly_deg": 89.2573,
      "mean_motion_rev_day": 15.275625
    },
    {
      "epoch": "2026-03-31T19:26:41.845056Z",
      "apogee_km": 483.9961060117266,
      "perigee_km": 482.0955583672103,
      "latitude_deg": 5.4938542571548525e-06,
      "longitude_deg": 156.14210735889006,
      "height_km": 482.80184488295305,
      "semi_major_axis_km": 6861.182832189468,
      "eccentricity": 0.0001385,
      "inclination_deg": 43.0,
      "raan_deg": 276.9987,
      "arg_perigee_deg": 271.2469,
      "mean_anomaly_deg": 88.8224,
      "mean_motion_rev_day": 15.2758109
    },
    {
      "epoch": "2026-04-01T18:59:02.370624Z",
      "apogee_km": 483.99516930022855,
      "perigee_km": 482.0658090022789,
      "latitude_deg": -1.857049995317707e-05,
      "longitude_deg": 156.5504459250589,
      "height_km": 482.9020006262284,
      "semi_major_axis_km": 6861.167489151254,
      "eccentricity": 0.0001406,
      "inclination_deg": 42.9993,
      "raan_deg": 271.4593,
      "arg_perigee_deg": 264.3544,
      "mean_anomaly_deg": 95.7147,
      "mean_motion_rev_day": 15.27586214
    },
    {
      "epoch": "2026-04-02T18:31:22.680192Z",
      "apogee_km": 483.780588045287,
      "perigee_km": 482.24959056807893,
      "latitude_deg": 8.330487202159041e-07,
      "longitude_deg": 156.9611328671843,
      "height_km": 482.83792194544463,
      "semi_major_axis_km": 6861.152089306683,
      "eccentricity": 0.00011157,
      "inclination_deg": 42.9996,
      "raan_deg": 265.9213,
      "arg_perigee_deg": 266.523,
      "mean_anomaly_deg": 93.5494,
      "mean_motion_rev_day": 15.27591357
    },
    {
      "epoch": "2026-04-03T18:03:42.948288Z",
      "apogee_km": 483.68642859669944,
      "perigee_km": 482.3279220499853,
      "latitude_deg": 2.5616237647521206e-05,
      "longitude_deg": 157.36949813017966,
      "height_km": 483.3250443436461,
      "semi_major_axis_km": 6861.144175323342,
      "eccentricity": 9.9e-05,
      "inclination_deg": 42.9948,
      "raan_deg": 260.3808,
      "arg_perigee_deg": 143.1792,
      "mean_anomaly_deg": 216.9128,
      "mean_motion_rev_day": 15.27594
    },
    {
      "epoch": "2026-04-04T19:10:13.471392Z",
      "apogee_km": 484.6440415117386,
      "perigee_km": 481.46319354145453,
      "latitude_deg": 4.7527909284038554e-05,
      "longitude_deg": 133.80387253305278,
      "height_km": 482.4855914848872,
      "semi_major_axis_km": 6861.190617526597,
      "eccentricity": 0.0002318,
      "inclination_deg": 43.0029,
      "raan_deg": 254.4735,
      "arg_perigee_deg": 282.5564,
      "mean_anomaly_deg": 77.5029,
      "mean_motion_rev_day": 15.2757849
    },
    {
      "epoch": "2026-04-05T03:01:00.983712Z",
      "apogee_km": 484.1611824211859,
      "perigee_km": 482.02308619835185,
      "latitude_deg": 7.404006699683547e-06,
      "longitude_deg": 13.935115746446,
      "height_km": 482.7622123707732,
      "semi_major_axis_km": 6861.229134309769,
      "eccentricity": 0.00015581,
      "inclination_deg": 42.9986,
      "raan_deg": 252.625,
      "arg_perigee_deg": 275.7231,
      "mean_anomaly_deg": 84.3443,
      "mean_motion_rev_day": 15.27565627
    },
    {
      "epoch": "2026-04-05T18:42:35.097696Z",
      "apogee_km": 483.88268175263056,
      "perigee_km": 482.25520370301547,
      "latitude_deg": 3.202296224034246e-05,
      "longitude_deg": 134.20641844571716,
      "height_km": 482.9778233497074,
      "semi_major_axis_km": 6861.205942727823,
      "eccentricity": 0.0001186,
      "inclination_deg": 43.0007,
      "raan_deg": 248.9329,
      "arg_perigee_deg": 260.642,
      "mean_anomaly_deg": 99.4298,
      "mean_motion_rev_day": 15.27573372
    },
    {
      "epoch": "2026-04-05T18:42:35.098560Z",
      "apogee_km": 483.88247591645177,
      "perigee_km": 482.25540953919335,
      "latitude_deg": 2.9696240076363694e-05,
      "longitude_deg": 134.20641235460636,
      "height_km": 482.97778988454536,
      "semi_major_axis_km": 6861.205942727823,
      "eccentricity": 0.00011857,
      "inclination_deg": 43.0007,
      "raan_deg": 248.9329,
      "arg_perigee_deg": 260.642,
      "mean_anomaly_deg": 99.4298,
      "mean_motion_rev_day": 15.27573372
    },
    {
      "epoch": "2026-04-07T09:56:30.436224Z",
      "apogee_km": 483.5161965466632,
      "perigee_km": 482.6116158191917,
      "latitude_deg": -4.120098008847608e-05,
      "longitude_deg": -105.11364350394567,
      "height_km": 482.60860045370606,
      "semi_major_axis_km": 6861.200906182928,
      "eccentricity": 6.592e-05,
      "inclination_deg": 42.9988,
      "raan_deg": 239.7047,
      "arg_perigee_deg": 300.7384,
      "mean_anomaly_deg": 59.3402,
      "mean_motion_rev_day": 15.27575054
    },
    {
      "epoch": "2026-04-08T15:45:28.520640Z",
      "apogee_km": 483.61662525621887,
      "perigee_km": 482.48247111980436,
      "latitude_deg": 6.151098600102714e-06,
      "longitude_deg": 159.40327971581445,
      "height_km": 482.81001775072247,
      "semi_major_axis_km": 6861.186548188011,
      "eccentricity": 8.265e-05,
      "inclination_deg": 42.9995,
      "raan_deg": 232.6881,
      "arg_perigee_deg": 271.5845,
      "mean_anomaly_deg": 88.4912,
      "mean_motion_rev_day": 15.27579849
    },
    {
      "epoch": "2026-04-09T15:17:49.079040Z",
      "apogee_km": 483.9355478210455,
      "perigee_km": 482.1434085249466,
      "latitude_deg": 2.8566661170544502e-05,
      "longitude_deg": 159.81012651854203,
      "height_km": 482.6835188292859,
      "semi_major_axis_km": 6861.176478172995,
      "eccentricity": 0.0001306,
      "inclination_deg": 43.0012,
      "raan_deg": 227.1473,
      "arg_perigee_deg": 278.5176,
      "mean_anomaly_deg": 81.5528,
      "mean_motion_rev_day": 15.27583212
    }
  ]
}